NORAD_CAT_ID,OBJECT_NAME,OBJECT_TYPE,EPOCH,MEAN_MOTION,ECCENTRICITY,INCLINATION,RA_OF_ASC_NODE,ARG_OF_PERICENTER,MEAN_ANOMALY,BSTAR,MEAN_MOTION_DOT,MEAN_MOTION_DDOT,TLE_LINE0,TLE_LINE1,TLE_LINE2,SEMIMAJOR_AXIS,PERIOD,APOGEE,PERIGEE,DECAYED
53738.0,STARLINK-4662,PAYLOAD,2023-11-24 10:55:44,15.08827308,0.0001352,53.2188,57.8954,85.0416,275.0731,-0.0002614,-4.444e-05,0.0,0 STARLINK-4662,1 53738U 22107AQ  23328.45537517 -.00004444  00000-0 -26140-3 0  9997,2 53738  53.2188  57.8954 0001352  85.0416 275.0731 15.08827308 67570,6917.919,95.438,540.719,538.849,0.0
53738.0,STARLINK-4662,PAYLOAD,2023-11-24 12:31:07,15.08829781,0.0001582,53.2185,57.5988,72.5668,287.5497,-0.00016875,-2.972e-05,0.0,0 STARLINK-4662,1 53738U 22107AQ  23328.52161531 -.00002972  00000-0 -16875-3 0  9992,2 53738  53.2185  57.5988 0001582  72.5668 287.5497 15.08829781 68212,6917.912,95.438,540.871,538.682,0.0
53738.0,STARLINK-4662,PAYLOAD,2023-11-24 14:06:30,15.08835343,0.0001399,53.2186,57.3004,96.2016,263.9136,-0.00011664,-2.144e-05,0.0,0 STARLINK-4662,1 53738U 22107AQ  23328.58785179 -.00002144  00000-0 -11664-3 0  9990,2 53738  53.2186  57.3004 0001399  96.2016 263.9136 15.08835343 67595,6917.895,95.438,540.727,538.792,0.0
53738.0,STARLINK-4662,PAYLOAD,2023-11-25 12:21:54,15.08861228,0.0001692,53.2183,53.1391,85.2903,274.8282,0.001141,0.00017928,0.0,0 STARLINK-4662,1 53738U 22107AQ  23329.51521750  .00017928  00000-0  11410-2 0  9999,2 53738  53.2183  53.1391 0001692  85.2903 274.8282 15.08861228 68364,6917.816,95.436,540.851,538.51,0.0
53738.0,STARLINK-4662,PAYLOAD,2023-11-26 10:37:17,15.08862435,0.0002066,53.2203,48.9783,112.5583,247.5628,0.00019403,2.803e-05,0.0,0 STARLINK-4662,1 53738U 22107AQ  23330.44256411  .00002803  00000-0  19403-3 0  9999,2 53738  53.2203  48.9783 0002066 112.5583 247.5628 15.08862435 67875,6917.812,95.436,541.106,538.248,0.0
53738.0,STARLINK-4662,PAYLOAD,2023-11-26 12:12:40,15.08862276,0.0001878,53.2201,48.6806,102.9226,257.1976,0.00025535,3.781e-05,0.0,0 STARLINK-4662,1 53738U 22107AQ  23330.50880355  .00003781  00000-0  25535-3 0  9995,2 53738  53.2201  48.6806 0001878 102.9226 257.1976 15.08862276 68511,6917.812,95.436,540.976,538.378,0.0
53738.0,STARLINK-4662,PAYLOAD,2023-11-27 12:03:29,15.08817757,0.0001724,53.2195,44.2197,97.0768,263.042,-0.00041649,-6.906e-05,0.0,0 STARLINK-4662,1 53738U 22107AQ  23331.50242639 -.00006906  00000-0 -41649-3 0  9991,2 53738  53.2195  44.2197 0001724  97.0768 263.0420 15.08817757 68034,6917.948,95.439,541.006,538.621,0.0
53738.0,STARLINK-4662,PAYLOAD,2023-11-28 11:54:15,15.08856,0.0001689,53.2188,39.7574,90.1027,270.0159,0.00023847,3.511e-05,0.0,0 STARLINK-4662,1 53738U 22107AQ  23332.49600987  .00003511  00000-0  23847-3 0  9991,2 53738  53.2188  39.7574 0001689  90.1027 270.0159 15.08856000 68183,6917.831,95.437,540.865,538.528,0.0
53738.0,STARLINK-4662,PAYLOAD,2023-11-29 11:45:04,15.08809424,0.0001545,53.2183,35.299,72.6697,287.4464,-7.9981e-05,-1.56e-05,0.0,0 STARLINK-4662,1 53738U 22107AQ  23333.48964087 -.00001560  00000-0 -79981-4 0  9990,2 53738  53.2183  35.2990 0001545  72.6697 287.4464 15.08809424 68336,6917.974,95.439,540.908,538.77,0.0
53738.0,STARLINK-4662,PAYLOAD,2023-11-30 11:35:50,15.08858187,0.0001806,53.2187,30.837,66.6964,293.4218,0.00020845,3.033e-05,0.0,0 STARLINK-4662,1 53738U 22107AQ  23334.48322206  .00003033  00000-0  20845-3 0  9991,2 53738  53.2187  30.8370 0001806  66.6964 293.4218 15.08858187 68483,6917.825,95.436,540.939,538.44,0.0
53738.0,STARLINK-4662,PAYLOAD,2023-12-01 03:29:42,15.08838054,0.0001743,53.2189,27.8697,67.0109,293.1066,0.00043187,6.591e-05,0.0,0 STARLINK-4662,1 53738U 22107AQ  23335.14563362  .00006591  00000-0  43187-3 0  9991,2 53738  53.2189  27.8697 0001743  67.0109 293.1066 15.08838054 68589,6917.886,95.438,540.957,538.546,0.0
53738.0,STARLINK-4662,PAYLOAD,2023-12-01 09:51:15,15.08840607,0.000171,53.2189,26.6784,76.1946,283.9237,0.0004083,6.216e-05,0.0,0 STARLINK-4662,1 53738U 22107AQ  23335.41059229  .00006216  00000-0  40830-3 0  9999,2 53738  53.2189  26.6784 0001710  76.1946 283.9237 15.08840607 69256,6917.879,95.438,540.926,538.561,0.0
53738.0,STARLINK-4662,PAYLOAD,2023-12-02 09:42:00,15.08881592,0.000214,53.2182,22.2184,61.5304,298.5903,0.00055784,8.611e-05,0.0,0 STARLINK-4662,1 53738U 22107AQ  23336.40416731  .00008611  00000-0  55784-3 0  9999,2 53738  53.2182  22.2184 0002140  61.5304 298.5903 15.08881592 68775,6917.753,95.435,541.099,538.138,0.0
53738.0,STARLINK-4662,PAYLOAD,2023-12-03 03:11:15,15.0882837,0.0001854,53.218,18.9427,88.9442,271.1762,-0.00038525,-6.412e-05,0.0,0 STARLINK-4662,1 53738U 22107AQ  23337.13282285 -.00006412  00000-0 -38525-3 0  9998,2 53738  53.2180  18.9427 0001854  88.9442 271.1762 15.08828370 68889,6917.916,95.438,541.064,538.498,0.0
53738.0,STARLINK-4662,PAYLOAD,2023-12-03 09:32:49,15.08800257,0.0001865,53.2185,17.7565,72.124,287.9955,-0.00091839,-0.00014859,0.0,0 STARLINK-4662,1 53738U 22107AQ  23337.39779203 -.00014859  00000-0 -91839-3 0  9998,2 53738  53.2185  17.7565 0001865  72.1240 287.9955 15.08800257 68925,6918.002,95.44,541.157,538.577,0.0
53738.0,STARLINK-4662,PAYLOAD,2023-12-03 17:29:45,15.0881463,0.000212,53.2184,16.2724,59.467,300.6532,-2.9303e-05,-7.54e-06,0.0,0 STARLINK-4662,1 53738U 22107AQ  23337.72899582 -.00000754  00000-0 -29303-4 0  9995,2 53738  53.2184  16.2724 0002120  59.4670 300.6532 15.08814630 68974,6917.958,95.439,541.29,538.356,0.0
53738.0,STARLINK-4662,PAYLOAD,2023-12-04 09:23:37,15.08830883,0.0002141,53.2175,13.2954,63.4338,296.6873,0.0019837,0.00031416,0.0,0 STARLINK-4662,1 53738U 22107AQ  23338.39141143  .00031416  00000-0  19837-2 0  9998,2 53738  53.2175  13.2954 0002141  63.4338 296.6873 15.08830883 69707,6917.908,95.438,541.254,538.292,0.0
53738.0,STARLINK-4662,PAYLOAD,2023-12-05 09:14:23,15.08885647,0.0002039,53.2184,8.8366,73.1245,286.997,0.0015049,0.00023774,0.0,0 STARLINK-4662,1 53738U 22107AQ  23339.38499083  .00023774  00000-0  15049-2 0  9996,2 53738  53.2184   8.8366 0002039  73.1245 286.9970 15.08885647 69859,6917.741,95.435,541.016,538.195,0.0
53738.0,STARLINK-4662,PAYLOAD,2023-12-06 01:08:14,15.08861973,0.0002299,53.2174,5.8606,65.4602,294.663,0.00089362,0.00013971,0.0,0 STARLINK-4662,1 53738U 22107AQ  23340.04738824  .00013971  00000-0  89362-3 0  9998,2 53738  53.2174   5.8606 0002299  65.4602 294.6630 15.08861973 69328,6917.813,95.436,541.269,538.088,0.0
53738.0,STARLINK-4662,PAYLOAD,2023-12-06 07:29:46,15.08855071,0.0002057,53.2173,4.6674,71.2815,288.84,0.0002305,3.384e-05,0.0,0 STARLINK-4662,1 53738U 22107AQ  23340.31234661  .00003384  00000-0  23050-3 0  9997,2 53738  53.2173   4.6674 0002057  71.2815 288.8400 15.08855071 69368,6917.834,95.437,541.122,538.276,0.0
53738.0,STARLINK-4662,PAYLOAD,2023-12-07 10:31:19,15.08836682,0.0001747,53.2169,359.6163,73.4734,286.645,2.8599e-05,1.67e-06,0.0,0 STARLINK-4662,1 53738U 22107AQ  23341.43842029  .00000167  00000-0  28599-4 0  9994,2 53738  53.2169 359.6163 0001747  73.4734 286.6450 15.08836682 69535,6917.891,95.438,540.964,538.547,0.0
53738.0,STARLINK-4662,PAYLOAD,2023-12-08 08:46:44,15.08832759,0.0001939,53.218,355.4547,73.1657,286.9548,-2.2145e-05,-6.41e-06,0.0,0 STARLINK-4662,1 53738U 22107AQ  23342.36578863 -.00000641  00000-0 -22145-4 0  9999,2 53738  53.2180 355.4547 0001939  73.1657 286.9548 15.08832759 69679,6917.903,95.438,541.109,538.426,0.0
53738.0,STARLINK-4662,PAYLOAD,2023-12-09 07:02:08,15.0883748,0.0001836,53.218,351.291,71.2452,288.8739,0.00018913,2.723e-05,0.0,0 STARLINK-4662,1 53738U 22107AQ  23343.29315193  .00002723  00000-0  18913-3 0  9995,2 53738  53.2180 351.2910 0001836  71.2452 288.8739 15.08837480 70441,6917.888,95.438,541.023,538.483,0.0
53738.0,STARLINK-4662,PAYLOAD,2023-12-10 10:03:42,15.08837768,0.0001761,53.2179,346.2355,75.2615,284.8572,0.00013954,1.933e-05,0.0,0 STARLINK-4662,1 53738U 22107AQ  23344.41923636  .00001933  00000-0  13954-3 0  9999,2 53738  53.2179 346.2355 0001761  75.2615 284.8572 15.08837768 69985,6917.887,95.438,540.97,538.534,0.0
53738.0,STARLINK-4662,PAYLOAD,2023-12-11 06:43:42,15.08841672,0.0001634,53.2178,342.3689,102.852,257.2655,0.00014044,1.948e-05,0.0,0 STARLINK-4662,1 53738U 22107AQ  23345.28035355  .00001948  00000-0  14044-3 0  9994,2 53738  53.2178 342.3689 0001634 102.8520 257.2655 15.08841672 70743,6917.875,95.437,540.871,538.61,0.0
53738.0,STARLINK-4662,PAYLOAD,2023-12-12 03:23:43,15.08840179,0.0001617,53.218,338.5009,104.0784,256.0388,8.7501e-05,1.105e-05,0.0,0 STARLINK-4662,1 53738U 22107AQ  23346.14147414  .00001105  00000-0  87501-4 0  9994,2 53738  53.2180 338.5009 0001617 104.0784 256.0388 15.08840179 70242,6917.88,95.438,540.863,538.626,0.0
53738.0,STARLINK-4662,PAYLOAD,2023-12-12 06:34:29,15.0884177,0.0001601,53.2189,337.9065,104.2786,255.8384,0.00011482,1.54e-05,0.0,0 STARLINK-4662,1 53738U 22107AQ  23346.27395414  .00001540  00000-0  11482-3 0  9990,2 53738  53.2189 337.9065 0001601 104.2786 255.8384 15.08841770 70895,6917.875,95.437,540.848,538.632,0.0
53738.0,STARLINK-4662,PAYLOAD,2023-12-13 03:14:30,15.08837602,0.0001761,53.2192,334.0437,115.8266,244.2908,5.924e-05,6.55e-06,0.0,0 STARLINK-4662,1 53738U 22107AQ  23347.13507912  .00000655  00000-0  59240-4 0  9995,2 53738  53.2192 334.0437 0001761 115.8266 244.2908 15.08837602 70396,6917.888,95.438,540.971,538.534,0.0
53738.0,STARLINK-4662,PAYLOAD,2023-12-13 04:49:54,15.08836255,0.0001724,53.2191,333.7458,114.2225,245.8947,4.0195e-05,3.52e-06,0.0,0 STARLINK-4662,1 53738U 22107AQ  23347.20131974  .00000352  00000-0  40195-4 0  9997,2 53738  53.2191 333.7458 0001724 114.2225 245.8947 15.08836255 71036,6917.892,95.438,540.949,538.564,0.0
53738.0,STARLINK-4662,PAYLOAD,2023-12-14 04:40:41,15.08837896,0.0001856,53.219,329.2864,121.6488,238.4685,7.8329e-05,9.59e-06,0.0,0 STARLINK-4662,1 53738U 22107AQ  23348.19491962  .00000959  00000-0  78329-4 0  9995,2 53738  53.2190 329.2864 0001856 121.6488 238.4685 15.08837896 70550,6917.887,95.438,541.036,538.468,0.0
